start=new Date('2021-11-17T00:00:00.000Z').valueOf();
sats=[{"EPHEMERIS_TYPE":"0","TLE_LINE1":"1 46117U 20057A   21320.53702706  .00000959  00000-0  83275-4 0  9993","MEAN_MOTION":"15.06401726","DECAY_DATE":null,"RCS_SIZE":"LARGE","ECCENTRICITY":"0.00018140","LAUNCH_DATE":"2020-08-18","OBJECT_ID":"2020-057A","NORAD_CAT_ID":"46117","PERIOD":"95.592","OBJECT_TYPE":"PAYLOAD","COUNTRY_CODE":"US","REV_AT_EPOCH":"6908","ARG_OF_PERICENTER":"73.6738","TIME_SYSTEM":"UTC","CENTER_NAME":"EARTH","EPOCH":"2021-11-16T12:53:19.137984","MEAN_ELEMENT_THEORY":"SGP4","PERIAPSIS":"545.952","MEAN_MOTION_DDOT":"0.0000000000000","OBJECT_NAME":"STARLINK-1585","ELEMENT_SET_NO":"999","GP_ID":"189880447","SITE":"AFETR","RA_OF_ASC_NODE":"163.2760","MEAN_MOTION_DOT":"0.00000959","TLE_LINE2":"2 46117  53.0544 163.2760 0001814  73.6738 286.4450 15.06401726 69089","MEAN_ANOMALY":"286.4450","FILE":"3216827","REF_FRAME":"TEME","BSTAR":"0.00008327500000","CLASSIFICATION_TYPE":"U","APOAPSIS":"548.465","INCLINATION":"53.0544","SEMIMAJOR_AXIS":"6925.343"},{"TLE_LINE2":"2 46118  53.0528 184.1258 0001639  75.3492 284.7678 15.06397431 70056","MEAN_MOTION_DOT":"-0.00000469","BSTAR":"-0.00001255400000","REF_FRAME":"TEME","FILE":"3216827","MEAN_ANOMALY":"284.7678","CLASSIFICATION_TYPE":"U","SEMIMAJOR_AXIS":"6925.356","INCLINATION":"53.0528","APOAPSIS":"548.356","OBJECT_NAME":"STARLINK-1588","PERIAPSIS":"546.086","MEAN_MOTION_DDOT":"0.0000000000000","ELEMENT_SET_NO":"999","GP_ID":"189880698","RA_OF_ASC_NODE":"184.1258","SITE":"AFETR","CENTER_NAME":"EARTH","TIME_SYSTEM":"UTC","EPOCH":"2021-11-16T08:19:59.109888","MEAN_ELEMENT_THEORY":"SGP4","NORAD_CAT_ID":"46118","PERIOD":"95.592","REV_AT_EPOCH":"7005","COUNTRY_CODE":"US","OBJECT_TYPE":"PAYLOAD","ARG_OF_PERICENTER":"75.3492","ECCENTRICITY":"0.00016390","RCS_SIZE":"LARGE","LAUNCH_DATE":"2020-08-18","OBJECT_ID":"2020-057B","MEAN_MOTION":"15.06397431","DECAY_DATE":null,"EPHEMERIS_TYPE":"0","TLE_LINE1":"1 46118U 20057B   21320.34721192 -.00000469  00000-0 -12554-4 0  9993"},{"DECAY_DATE":null,"MEAN_MOTION":"15.06394242","TLE_LINE1":"1 46119U 20057C   21320.33614915  .00002102  00000-0  16000-3 0  9990","EPHEMERIS_TYPE":"0","LAUNCH_DATE":"2020-08-18","OBJECT_ID":"2020-057C","RCS_SIZE":"LARGE","ECCENTRICITY":"0.00017220","MEAN_ELEMENT_THEORY":"SGP4","TIME_SYSTEM":"UTC","CENTER_NAME":"EARTH","EPOCH":"2021-11-16T08:04:03.286560","COUNTRY_CODE":"US","OBJECT_TYPE":"PAYLOAD","REV_AT_EPOCH":"7003","ARG_OF_PERICENTER":"74.0585","NORAD_CAT_ID":"46119","PERIOD":"95.593","CLASSIFICATION_TYPE":"U","APOAPSIS":"548.424","INCLINATION":"53.0542","SEMIMAJOR_AXIS":"6925.366","MEAN_MOTION_DOT":"0.00002102","TLE_LINE2":"2 46119  53.0542 184.1735 0001722  74.0585 286.0594 15.06394242 70032","FILE":"3216827","MEAN_ANOMALY":"286.0594","REF_FRAME":"TEME","BSTAR":"0.00016000000000","GP_ID":"189878945","ELEMENT_SET_NO":"999","SITE":"AFETR","RA_OF_ASC_NODE":"184.1735","MEAN_MOTION_DDOT":"0.0000000000000","PERIAPSIS":"546.039","OBJECT_NAME":"STARLINK-1593"},{"OBJECT_ID":"2020-057D","LAUNCH_DATE":"2020-08-18","ECCENTRICITY":"0.00019330","RCS_SIZE":"LARGE","DECAY_DATE":null,"MEAN_MOTION":"15.06396380","TLE_LINE1":"1 46120U 20057D   21320.32140744 -.00000546  00000-0 -17736-4 0  9995","EPHEMERIS_TYPE":"0","SEMIMAJOR_AXIS":"6925.360","APOAPSIS":"548.563","INCLINATION":"53.0540","CLASSIFICATION_TYPE":"U","BSTAR":"-0.00001773600000","REF_FRAME":"TEME","MEAN_ANOMALY":"293.6612","FILE":"3216827","TLE_LINE2":"2 46120  53.0540 184.2363 0001933  66.4580 293.6612 15.06396380 70056","MEAN_MOTION_DOT":"-0.00000546","RA_OF_ASC_NODE":"184.2363","SITE":"AFETR","GP_ID":"189879189","ELEMENT_SET_NO":"999","OBJECT_NAME":"STARLINK-1601","PERIAPSIS":"545.886","MEAN_MOTION_DDOT":"0.0000000000000","MEAN_ELEMENT_THEORY":"SGP4","EPOCH":"2021-11-16T07:42:49.602816","CENTER_NAME":"EARTH","TIME_SYSTEM":"UTC","ARG_OF_PERICENTER":"66.4580","REV_AT_EPOCH":"7005","COUNTRY_CODE":"US","OBJECT_TYPE":"PAYLOAD","PERIOD":"95.592","NORAD_CAT_ID":"46120"},{"OBJECT_ID":"2020-057E","LAUNCH_DATE":"2020-08-18","RCS_SIZE":"LARGE","ECCENTRICITY":"0.00016750","DECAY_DATE":null,"MEAN_MOTION":"15.06391375","TLE_LINE1":"1 46121U 20057E   21320.29008363 -.00000807  00000-0 -35266-4 0  9990","EPHEMERIS_TYPE":"0","INCLINATION":"53.0538","APOAPSIS":"548.400","SEMIMAJOR_AXIS":"6925.375","CLASSIFICATION_TYPE":"U","FILE":"3216827","MEAN_ANOMALY":"296.9504","BSTAR":"-0.00003526600000","REF_FRAME":"TEME","MEAN_MOTION_DOT":"-0.00000807","TLE_LINE2":"2 46121  53.0538 164.3786 0001675  63.1656 296.9504 15.06391375 69045","SITE":"AFETR","RA_OF_ASC_NODE":"164.3786","ELEMENT_SET_NO":"999","GP_ID":"189879947","MEAN_MOTION_DDOT":"0.0000000000000","PERIAPSIS":"546.080","OBJECT_NAME":"STARLINK-1602","MEAN_ELEMENT_THEORY":"SGP4","EPOCH":"2021-11-16T06:57:43.225632","TIME_SYSTEM":"UTC","CENTER_NAME":"EARTH","ARG_OF_PERICENTER":"63.1656","COUNTRY_CODE":"US","OBJECT_TYPE":"PAYLOAD","REV_AT_EPOCH":"6904","PERIOD":"95.593","NORAD_CAT_ID":"46121"},{"EPOCH":"2021-11-16T11:57:36.621792","TIME_SYSTEM":"UTC","CENTER_NAME":"EARTH","MEAN_ELEMENT_THEORY":"SGP4","PERIOD":"95.593","NORAD_CAT_ID":"46122","ARG_OF_PERICENTER":"75.8560","COUNTRY_CODE":"US","OBJECT_TYPE":"PAYLOAD","REV_AT_EPOCH":"7061","MEAN_ANOMALY":"284.2626","FILE":"3216827","BSTAR":"-0.00005018300000","REF_FRAME":"TEME","MEAN_MOTION_DOT":"-0.00001029","TLE_LINE2":"2 46122  53.0531 143.4353 0001768  75.8560 284.2626 15.06389829 70615","APOAPSIS":"548.469","INCLINATION":"53.0531","SEMIMAJOR_AXIS":"6925.380","CLASSIFICATION_TYPE":"U","MEAN_MOTION_DDOT":"0.0000000000000","PERIAPSIS":"546.020","OBJECT_NAME":"STARLINK-1604","SITE":"AFETR","RA_OF_ASC_NODE":"143.4353","GP_ID":"189881199","ELEMENT_SET_NO":"999","MEAN_MOTION":"15.06389829","DECAY_DATE":null,"EPHEMERIS_TYPE":"0","TLE_LINE1":"1 46122U 20057F   21320.49834053 -.00001029  00000-0 -50183-4 0  9998","RCS_SIZE":"LARGE","ECCENTRICITY":"0.00017680","OBJECT_ID":"2020-057F","LAUNCH_DATE":"2020-08-18"},{"MEAN_ANOMALY":"283.6854","FILE":"3216827","BSTAR":"0.00007793600000","REF_FRAME":"TEME","MEAN_MOTION_DOT":"0.00000879","TLE_LINE2":"2 46123  53.0535 143.5058 0001683  76.4322 283.6854 15.06393997 70631","INCLINATION":"53.0535","APOAPSIS":"548.397","SEMIMAJOR_AXIS":"6925.367","CLASSIFICATION_TYPE":"U","PERIAPSIS":"546.066","MEAN_MOTION_DDOT":"0.0000000000000","OBJECT_NAME":"STARLINK-1605","SITE":"AFETR","RA_OF_ASC_NODE":"143.5058","GP_ID":"189879446","ELEMENT_SET_NO":"999","EPOCH":"2021-11-16T11:36:23.465952","TIME_SYSTEM":"UTC","CENTER_NAME":"EARTH","MEAN_ELEMENT_THEORY":"SGP4","PERIOD":"95.593","NORAD_CAT_ID":"46123","ARG_OF_PERICENTER":"76.4322","OBJECT_TYPE":"PAYLOAD","COUNTRY_CODE":"US","REV_AT_EPOCH":"7063","RCS_SIZE":"LARGE","ECCENTRICITY":"0.00016830","OBJECT_ID":"2020-057G","LAUNCH_DATE":"2020-08-18","MEAN_MOTION":"15.06393997","DECAY_DATE":null,"EPHEMERIS_TYPE":"0","TLE_LINE1":"1 46123U 20057G   21320.48360493  .00000879  00000-0  77936-4 0  9995"},{"OBJECT_ID":"2020-057H","LAUNCH_DATE":"2020-08-18","ECCENTRICITY":"0.00016340","RCS_SIZE":"LARGE","DECAY_DATE":null,"MEAN_MOTION":"15.06390724","TLE_LINE1":"1 46124U 20057H   21320.49096802 -.00000855  00000-0 -38492-4 0  9997","EPHEMERIS_TYPE":"0","SEMIMAJOR_AXIS":"6925.377","APOAPSIS":"548.374","INCLINATION":"53.0541","CLASSIFICATION_TYPE":"U","REF_FRAME":"TEME","BSTAR":"-0.00003849200000","MEAN_ANOMALY":"289.7423","FILE":"3216827","TLE_LINE2":"2 46124  53.0541 143.4785 0001634  70.3742 289.7423 15.06390724 69362","MEAN_MOTION_DOT":"-0.00000855","RA_OF_ASC_NODE":"143.4785","SITE":"AFETR","ELEMENT_SET_NO":"999","GP_ID":"189879690","OBJECT_NAME":"STARLINK-1614","MEAN_MOTION_DDOT":"0.0000000000000","PERIAPSIS":"546.110","MEAN_ELEMENT_THEORY":"SGP4","EPOCH":"2021-11-16T11:46:59.636928","TIME_SYSTEM":"UTC","CENTER_NAME":"EARTH","ARG_OF_PERICENTER":"70.3742","REV_AT_EPOCH":"6936","COUNTRY_CODE":"US","OBJECT_TYPE":"PAYLOAD","PERIOD":"95.593","NORAD_CAT_ID":"46124"},{"EPHEMERIS_TYPE":"0","TLE_LINE1":"1 46125U 20057J   21320.33983238  .00001422  00000-0  11438-3 0  9998","MEAN_MOTION":"15.06395997","DECAY_DATE":null,"RCS_SIZE":"LARGE","ECCENTRICITY":"0.00019170","OBJECT_ID":"2020-057J","LAUNCH_DATE":"2020-08-18","PERIOD":"95.592","NORAD_CAT_ID":"46125","ARG_OF_PERICENTER":"69.7774","COUNTRY_CODE":"US","OBJECT_TYPE":"PAYLOAD","REV_AT_EPOCH":"7003","EPOCH":"2021-11-16T08:09:21.517632","TIME_SYSTEM":"UTC","CENTER_NAME":"EARTH","MEAN_ELEMENT_THEORY":"SGP4","MEAN_MOTION_DDOT":"0.0000000000000","PERIAPSIS":"545.898","OBJECT_NAME":"STARLINK-1618","SITE":"AFETR","RA_OF_ASC_NODE":"184.1449","ELEMENT_SET_NO":"999","GP_ID":"189880448","FILE":"3216827","MEAN_ANOMALY":"290.3420","REF_FRAME":"TEME","BSTAR":"0.00011438000000","MEAN_MOTION_DOT":"0.00001422","TLE_LINE2":"2 46125  53.0525 184.1449 0001917  69.7774 290.3420 15.06395997 70033","APOAPSIS":"548.553","INCLINATION":"53.0525","SEMIMAJOR_AXIS":"6925.361","CLASSIFICATION_TYPE":"U"},{"DECAY_DATE":null,"MEAN_MOTION":"15.06343283","TLE_LINE1":"1 46126U 20057K   21319.91594051  .00004712  00000-0  33555-3 0  9991","EPHEMERIS_TYPE":"0","LAUNCH_DATE":"2020-08-18","OBJECT_ID":"2020-057K","ECCENTRICITY":"0.00015270","RCS_SIZE":"LARGE","MEAN_ELEMENT_THEORY":"SGP4","CENTER_NAME":"EARTH","TIME_SYSTEM":"UTC","EPOCH":"2021-11-15T21:58:57.260064","REV_AT_EPOCH":"6871","COUNTRY_CODE":"US","OBJECT_TYPE":"PAYLOAD","ARG_OF_PERICENTER":"57.2598","NORAD_CAT_ID":"46126","PERIOD":"95.596","CLASSIFICATION_TYPE":"U","SEMIMAJOR_AXIS":"6925.522","APOAPSIS":"548.445","INCLINATION":"53.0797","TLE_LINE2":"2 46126  53.0797 185.9284 0001527  57.2598 302.8538 15.06343283 68716","MEAN_MOTION_DOT":"0.00004712","BSTAR":"0.00033555000000","REF_FRAME":"TEME","FILE":"3215928","MEAN_ANOMALY":"302.8538","ELEMENT_SET_NO":"999","GP_ID":"189836084","RA_OF_ASC_NODE":"185.9284","SITE":"AFETR","OBJECT_NAME":"STARLINK-1619","MEAN_MOTION_DDOT":"0.0000000000000","PERIAPSIS":"546.330"}];
